{"type": "FeatureCollection", "features": [{"type": "Feature", "properties": {"norad_id": 28054, "name": "DMSP 5D-3 F16 (USA 172)", "group": "weather", "lat": -33.0386717153901, "lon": -170.8951285616858, "alt_km": 849.0217279484878, "timestamp": "2025-12-23T11:34:47.828239+00:00", "meta": {"OBJECT_NAME": "DMSP 5D-3 F16 (USA 172)", "OBJECT_ID": "2003-048A", "EPOCH": "2025-12-23T02:30:30.483072", "MEAN_MOTION": 14.14427803, "ECCENTRICITY": 0.000626, "INCLINATION": 99.0038, "RA_OF_ASC_NODE": 14.6427, "ARG_OF_PERICENTER": 287.6711, "MEAN_ANOMALY": 162.2249, "EPHEMERIS_TYPE": 0, "CLASSIFICATION_TYPE": "U", "NORAD_CAT_ID": 28054, "ELEMENT_SET_NO": 999, "REV_AT_EPOCH": 14459, "BSTAR": 8.3389e-05, "MEAN_MOTION_DOT": 1.14e-06, "MEAN_MOTION_DDOT": 0}, "tle": {"line1": "1 28054U 03048A   25357.10451948  .00000114  00000+0  83389-4 0  9998", "line2": "2 28054  99.0038  14.6427 0006260 287.6711 162.2249 14.14427803144593"}}, "geometry": {"type": "Point", "coordinates": [-170.8951285616858, -33.0386717153901]}}, {"type": "Feature", "properties": {"norad_id": 28912, "name": "METEOSAT-9 (MSG-2)", "group": "weather", "lat": -8.655450441182222, "lon": -49.578234854951944, "alt_km": 35556.44879835403, "timestamp": "2025-12-23T11:34:47.828288+00:00", "meta": {"OBJECT_NAME": "METEOSAT-9 (MSG-2)", "OBJECT_ID": "2005-049B", "EPOCH": "2025-12-22T18:31:08.664384", "MEAN_MOTION": 1.00267705, "ECCENTRICITY": 0.00617708, "INCLINATION": 8.9523, "RA_OF_ASC_NODE": 55.8676, "ARG_OF_PERICENTER": 281.9132, "MEAN_ANOMALY": 76.5371, "EPHEMERIS_TYPE": 0, "CLASSIFICATION_TYPE": "U", "NORAD_CAT_ID": 28912, "ELEMENT_SET_NO": 999, "REV_AT_EPOCH": 522, "BSTAR": 0, "MEAN_MOTION_DOT": 1.44e-06, "MEAN_MOTION_DDOT": 0}, "tle": {"line1": "1 28912U 05049B   25356.77162806  .00000144  00000+0  00000+0 0  9995", "line2": "2 28912   8.9523  55.8676 0061770 281.9132  76.5371  1.00267705  5221"}}, "geometry": {"type": "Point", "coordinates": [-49.578234854951944, -8.655450441182222]}}, {"type": "Feature", "properties": {"norad_id": 29522, "name": "DMSP 5D-3 F17 (USA 191)", "group": "weather", "lat": 7.08371002802194, "lon": -176.25687149046723, "alt_km": 837.8308011359877, "timestamp": "2025-12-23T11:34:47.828303+00:00", "meta": {"OBJECT_NAME": "DMSP 5D-3 F17 (USA 191)", "OBJECT_ID": "2006-050A", "EPOCH": "2025-12-22T22:53:09.102048", "MEAN_MOTION": 14.14923895, "ECCENTRICITY": 0.00098416, "INCLINATION": 98.7391, "RA_OF_ASC_NODE": 2.13, "ARG_OF_PERICENTER": 194.2781, "MEAN_ANOMALY": 165.8116, "EPHEMERIS_TYPE": 0, "CLASSIFICATION_TYPE": "U", "NORAD_CAT_ID": 29522, "ELEMENT_SET_NO": 999, "REV_AT_EPOCH": 98749, "BSTAR": 9.3286306e-05, "MEAN_MOTION_DOT": 1.37e-06, "MEAN_MOTION_DDOT": 0}, "tle": {"line1": "1 29522U 06050A   25356.95357757  .00000137  00000+0  93286-4 0  9992", "line2": "2 29522  98.7391   2.1300 0009841 194.2781 165.8116 14.14923895987490"}}, "geometry": {"type": "Point", "coordinates": [-176.25687149046723, 7.08371002802194]}}, {"type": "Feature", "properties": {"norad_id": 32958, "name": "FENGYUN 3A", "group": "weather", "lat": 62.83428561457331, "lon": -80.51629607386008, "alt_km": 825.517984985936, "timestamp": "2025-12-23T11:34:47.828315+00:00", "meta": {"OBJECT_NAME": "FENGYUN 3A", "OBJECT_ID": "2008-026A", "EPOCH": "2025-12-22T20:03:12.943008", "MEAN_MOTION": 14.19517515, "ECCENTRICITY": 0.00076474, "INCLINATION": 98.6712, "RA_OF_ASC_NODE": 296.1503, "ARG_OF_PERICENTER": 277.7214, "MEAN_ANOMALY": 82.3094, "EPHEMERIS_TYPE": 0, "CLASSIFICATION_TYPE": "U", "NORAD_CAT_ID": 32958, "ELEMENT_SET_NO": 999, "REV_AT_EPOCH": 91038, "BSTAR": 5.9361681e-05, "MEAN_MOTION_DOT": 8.2e-07, "MEAN_MOTION_DDOT": 0}, "tle": {"line1": "1 32958U 08026A   25356.83556647  .00000082  00000+0  59362-4 0  9996", "line2": "2 32958  98.6712 296.1503 0007647 277.7214  82.3094 14.19517515910388"}}, "geometry": {"type": "Point", "coordinates": [-80.51629607386008, 62.83428561457331]}}, {"type": "Feature", "properties": {"norad_id": 35491, "name": "GOES 14", "group": "weather", "lat": 1.1228025548664264, "lon": 149.42793874645585, "alt_km": 35836.354487271616, "timestamp": "2025-12-23T11:34:47.828328+00:00", "meta": {"OBJECT_NAME": "GOES 14", "OBJECT_ID": "2009-033A", "EPOCH": "2025-12-23T03:38:04.696800", "MEAN_MOTION": 1.00097009, "ECCENTRICITY": 5.74e-05, "INCLINATION": 1.2292, "RA_OF_ASC_NODE": 85.2996, "ARG_OF_PERICENTER": 188.1101, "MEAN_ANOMALY": 116.7364, "EPHEMERIS_TYPE": 0, "CLASSIFICATION_TYPE": "U", "NORAD_CAT_ID": 35491, "ELEMENT_SET_NO": 999, "REV_AT_EPOCH": 482, "BSTAR": 0, "MEAN_MOTION_DOT": 2.9e-07, "MEAN_MOTION_DDOT": 0}, "tle": {"line1": "1 35491U 09033A   25357.15144325  .00000029  00000+0  00000+0 0  9993", "line2": "2 35491   1.2292  85.2996 0000574 188.1101 116.7364  1.00097009  4823"}}, "geometry": {"type": "Point", "coordinates": [149.42793874645585, 1.1228025548664264]}}, {"type": "Feature", "properties": {"norad_id": 35951, "name": "DMSP 5D-3 F18 (USA 210)", "group": "weather", "lat": 33.96193472208655, "lon": -32.21762304954213, "alt_km": 832.3437675433725, "timestamp": "2025-12-23T11:34:47.828338+00:00", "meta": {"OBJECT_NAME": "DMSP 5D-3 F18 (USA 210)", "OBJECT_ID": "2009-057A", "EPOCH": "2025-12-23T02:55:53.256288", "MEAN_MOTION": 14.14775935, "ECCENTRICITY": 0.0011772, "INCLINATION": 98.8847, "RA_OF_ASC_NODE": 333.4715, "ARG_OF_PERICENTER": 35.3507, "MEAN_ANOMALY": 324.8444, "EPHEMERIS_TYPE": 0, "CLASSIFICATION_TYPE": "U", "NORAD_CAT_ID": 35951, "ELEMENT_SET_NO": 999, "REV_AT_EPOCH": 83469, "BSTAR": 0.00016883, "MEAN_MOTION_DOT": 2.81e-06, "MEAN_MOTION_DDOT": 0}, "tle": {"line1": "1 35951U 09057A   25357.12214417  .00000281  00000+0  16883-3 0  9997", "line2": "2 35951  98.8847 333.4715 0011772  35.3507 324.8444 14.14775935834691"}}, "geometry": {"type": "Point", "coordinates": [-32.21762304954213, 33.96193472208655]}}, {"type": "Feature", "properties": {"norad_id": 36411, "name": "EWS-G2 (GOES 15)", "group": "weather", "lat": -0.7519440245336187, "lon": -32.623712877832226, "alt_km": 35775.63529067846, "timestamp": "2025-12-23T11:34:47.828351+00:00", "meta": {"OBJECT_NAME": "EWS-G2 (GOES 15)", "OBJECT_ID": "2010-008A", "EPOCH": "2025-12-23T03:09:06.251040", "MEAN_MOTION": 1.00271098, "ECCENTRICITY": 0.0005514, "INCLINATION": 0.8378, "RA_OF_ASC_NODE": 86.0724, "ARG_OF_PERICENTER": 178.4858, "MEAN_ANOMALY": 296.0011, "EPHEMERIS_TYPE": 0, "CLASSIFICATION_TYPE": "U", "NORAD_CAT_ID": 36411, "ELEMENT_SET_NO": 999, "REV_AT_EPOCH": 5787, "BSTAR": 0, "MEAN_MOTION_DOT": 5.9e-07, "MEAN_MOTION_DDOT": 0}, "tle": {"line1": "1 36411U 10008A   25357.13132235  .00000059  00000+0  00000+0 0  9998", "line2": "2 36411   0.8378  86.0724 0005514 178.4858 296.0011  1.00271098 57870"}}, "geometry": {"type": "Point", "coordinates": [-32.623712877832226, -0.7519440245336187]}}, {"type": "Feature", "properties": {"norad_id": 36744, "name": "COMS 1", "group": "weather", "lat": -3.009258532751842, "lon": 34.23613827740089, "alt_km": 35787.61303058455, "timestamp": "2025-12-23T11:34:47.828363+00:00", "meta": {"OBJECT_NAME": "COMS 1", "OBJECT_ID": "2010-032A", "EPOCH": "2025-12-22T21:34:51.646368", "MEAN_MOTION": 1.00271059, "ECCENTRICITY": 7.73e-05, "INCLINATION": 4.3632, "RA_OF_ASC_NODE": 77.8837, "ARG_OF_PERICENTER": 211.4503, "MEAN_ANOMALY": 254.2562, "EPHEMERIS_TYPE": 0, "CLASSIFICATION_TYPE": "U", "NORAD_CAT_ID": 36744, "ELEMENT_SET_NO": 999, "REV_AT_EPOCH": 4932, "BSTAR": 0, "MEAN_MOTION_DOT": -3.25e-06, "MEAN_MOTION_DDOT": 0}, "tle": {"line1": "1 36744U 10032A   25356.89920887 -.00000325  00000+0  00000+0 0  9991", "line2": "2 36744   4.3632  77.8837 0000773 211.4503 254.2562  1.00271059 49326"}}, "geometry": {"type": "Point", "coordinates": [34.23613827740089, -3.009258532751842]}}, {"type": "Feature", "properties": {"norad_id": 37214, "name": "FENGYUN 3B", "group": "weather", "lat": -0.09340797879202062, "lon": 37.54894327724287, "alt_km": 832.8568177126363, "timestamp": "2025-12-23T11:34:47.828374+00:00", "meta": {"OBJECT_NAME": "FENGYUN 3B", "OBJECT_ID": "2010-059A", "EPOCH": "2025-12-23T05:10:04.259712", "MEAN_MOTION": 14.14791401, "ECCENTRICITY": 0.0021559, "INCLINATION": 98.989, "RA_OF_ASC_NODE": 37.2652, "ARG_OF_PERICENTER": 327.8244, "MEAN_ANOMALY": 112.0528, "EPHEMERIS_TYPE": 0, "CLASSIFICATION_TYPE": "U", "NORAD_CAT_ID": 37214, "ELEMENT_SET_NO": 999, "REV_AT_EPOCH": 78254, "BSTAR": -5.236e-05, "MEAN_MOTION_DOT": -1.47e-06, "MEAN_MOTION_DDOT": 0}, "tle": {"line1": "1 37214U 10059A   25357.21532708 -.00000147  00000+0 -52360-4 0  9995", "line2": "2 37214  98.9890  37.2652 0021559 327.8244 112.0528 14.14791401782546"}}, "geometry": {"type": "Point", "coordinates": [37.54894327724287, -0.09340797879202062]}}, {"type": "Feature", "properties": {"norad_id": 37849, "name": "SUOMI NPP", "group": "weather", "lat": 22.553950519634682, "lon": -68.95177831931747, "alt_km": 826.1971918256995, "timestamp": "2025-12-23T11:34:47.828384+00:00", "meta": {"OBJECT_NAME": "SUOMI NPP", "OBJECT_ID": "2011-061A", "EPOCH": "2025-12-22T15:10:21.732672", "MEAN_MOTION": 14.19516903, "ECCENTRICITY": 0.00024883, "INCLINATION": 98.7787, "RA_OF_ASC_NODE": 293.8852, "ARG_OF_PERICENTER": 103.0781, "MEAN_ANOMALY": 257.0673, "EPHEMERIS_TYPE": 0, "CLASSIFICATION_TYPE": "U", "NORAD_CAT_ID": 37849, "ELEMENT_SET_NO": 999, "REV_AT_EPOCH": 73339, "BSTAR": 6.3406935e-05, "MEAN_MOTION_DOT": 8.9e-07, "MEAN_MOTION_DDOT": 0}, "tle": {"line1": "1 37849U 11061A   25356.63219598  .00000089  00000+0  63407-4 0  9994", "line2": "2 37849  98.7787 293.8852 0002488 103.0781 257.0673 14.19516903733392"}}, "geometry": {"type": "Point", "coordinates": [-68.95177831931747, 22.553950519634682]}}]}